{"type": "FeatureCollection", "features": [ {"type": "Feature", "properties": {"norad_id": 35618, "name": "IRIDIUM 33 DEB", "group": "iridium-33-debris", "lat": -68.19605509496954, "lon": -172.23494412996115, "alt_km": 747.3031230820434, "timestamp": "2025-12-01T03:58:49.184293+00:00", "meta": {"OBJECT_NAME": "IRIDIUM 33 DEB", "OBJECT_ID": "1997-051QQ", "EPOCH": "2025-11-27T19:27:47.606688", "MEAN_MOTION": 14.52216193, "ECCENTRICITY": 0.00308317, "INCLINATION": 86.3414, "RA_OF_ASC_NODE": 0.0275, "ARG_OF_PERICENTER": 70.0508, "MEAN_ANOMALY": 290.4015, "EPHEMERIS_TYPE": 0, "CLASSIFICATION_TYPE": "U", "NORAD_CAT_ID": 35618, "ELEMENT_SET_NO": 999, "REV_AT_EPOCH": 65177, "BSTAR": 0.00046503481, "MEAN_MOTION_DOT": 1.919e-05, "MEAN_MOTION_DDOT": 0, "GROUP": "iridium-33-debris"}, "tle": {"line1": "1 35618U 97051QQ  25331.81096767  .00001919  00000+0  46503-3 0  9993", "line2": "2 35618  86.3414   0.0275 0030831  70.0508 290.4015 14.52216193651771"}}, "geometry": {"type": "Point", "coordinates": [-172.23494412996115, -68.19605509496954]}}, {"type": "Feature", "properties": {"norad_id": 35620, "name": "IRIDIUM 33 DEB", "group": "iridium-33-debris", "lat": 63.63250425912362, "lon": 35.011397443527244, "alt_km": 865.4699396676988, "timestamp": "2025-12-01T03:58:49.184304+00:00", "meta": {"OBJECT_NAME": "IRIDIUM 33 DEB", "OBJECT_ID": "1997-051QS", "EPOCH": "2025-11-30T15:44:23.769888", "MEAN_MOTION": 14.37353834, "ECCENTRICITY": 0.0146114, "INCLINATION": 86.3877, "RA_OF_ASC_NODE": 222.5479, "ARG_OF_PERICENTER": 298.526, "MEAN_ANOMALY": 60.1291, "EPHEMERIS_TYPE": 0, "CLASSIFICATION_TYPE": "U", "NORAD_CAT_ID": 35620, "ELEMENT_SET_NO": 999, "REV_AT_EPOCH": 59792, "BSTAR": 0.0056875, "MEAN_MOTION_DOT": 0.00019253, "MEAN_MOTION_DDOT": 0, "GROUP": "iridium-33-debris"}, "tle": {"line1": "1 35620U 97051QS  25334.65583067  .00019253  00000+0  56875-2 0  9997", "line2": "2 35620  86.3877 222.5479 0146114 298.5260  60.1291 14.37353834597929"}}, "geometry": {"type": "Point", "coordinates": [35.011397443527244, 63.63250425912362]}}, {"type": "Feature", "properties": {"norad_id": 35622, "name": "IRIDIUM 33 DEB", "group": "iridium-33-debris", "lat": -17.74716730854308, "lon": -91.9256374166058, "alt_km": 557.2542832596628, "timestamp": "2025-12-01T03:58:49.184314+00:00", "meta": {"OBJECT_NAME": "IRIDIUM 33 DEB", "OBJECT_ID": "1997-051QU", "EPOCH": "2025-11-30T14:26:56.846112", "MEAN_MOTION": 15.02344133, "ECCENTRICITY": 0.0011317, "INCLINATION": 86.2032, "RA_OF_ASC_NODE": 269.5689, "ARG_OF_PERICENTER": 6.0229, "MEAN_ANOMALY": 169.0452, "EPHEMERIS_TYPE": 0, "CLASSIFICATION_TYPE": "U", "NORAD_CAT_ID": 35622, "ELEMENT_SET_NO": 999, "REV_AT_EPOCH": 87177, "BSTAR": 0.0052905, "MEAN_MOTION_DOT": 0.00070654, "MEAN_MOTION_DDOT": 0, "GROUP": "iridium-33-debris"}, "tle": {"line1": "1 35622U 97051QU  25334.60204683  .00070654  00000+0  52905-2 0  9990", "line2": "2 35622  86.2032 269.5689 0011317   6.0229 169.0452 15.02344133871771"}}, "geometry": {"type": "Point", "coordinates": [-91.9256374166058, -17.74716730854308]}}, {"type": "Feature", "properties": {"norad_id": 35628, "name": "IRIDIUM 33 DEB", "group": "iridium-33-debris", "lat": -53.962747008499925, "lon": -160.74158886620341, "alt_km": 683.9013511665698, "timestamp": "2025-12-01T03:58:49.184324+00:00", "meta": {"OBJECT_NAME": "IRIDIUM 33 DEB", "OBJECT_ID": "1997-051RA", "EPOCH": "2025-11-29T21:27:20.963232", "MEAN_MOTION": 14.67294117, "ECCENTRICITY": 0.00119828, "INCLINATION": 86.3589, "RA_OF_ASC_NODE": 14.8037, "ARG_OF_PERICENTER": 26.1633, "MEAN_ANOMALY": 334.0184, "EPHEMERIS_TYPE": 0, "CLASSIFICATION_TYPE": "U", "NORAD_CAT_ID": 35628, "ELEMENT_SET_NO": 999, "REV_AT_EPOCH": 86258, "BSTAR": 0.0014619728, "MEAN_MOTION_DOT": 8.277e-05, "MEAN_MOTION_DDOT": 0, "GROUP": "iridium-33-debris"}, "tle": {"line1": "1 35628U 97051RA  25333.89399263  .00008277  00000+0  14620-2 0  9999", "line2": "2 35628  86.3589  14.8037 0011982  26.1633 334.0184 14.67294117862584"}}, "geometry": {"type": "Point", "coordinates": [-160.74158886620341, -53.962747008499925]}}, {"type": "Feature", "properties": {"norad_id": 35631, "name": "IRIDIUM 33 DEB", "group": "iridium-33-debris", "lat": -68.98014974971144, "lon": -144.52744013963311, "alt_km": 743.2907556673281, "timestamp": "2025-12-01T03:58:49.184337+00:00", "meta": {"OBJECT_NAME": "IRIDIUM 33 DEB", "OBJECT_ID": "1997-051RD", "EPOCH": "2025-11-30T10:18:33.341184", "MEAN_MOTION": 14.4725686, "ECCENTRICITY": 0.00178932, "INCLINATION": 86.3681, "RA_OF_ASC_NODE": 26.2752, "ARG_OF_PERICENTER": 155.6667, "MEAN_ANOMALY": 219.6299, "EPHEMERIS_TYPE": 0, "CLASSIFICATION_TYPE": "U", "NORAD_CAT_ID": 35631, "ELEMENT_SET_NO": 999, "REV_AT_EPOCH": 87019, "BSTAR": 0.00035765157, "MEAN_MOTION_DOT": 1.33e-05, "MEAN_MOTION_DDOT": 0, "GROUP": "iridium-33-debris"}, "tle": {"line1": "1 35631U 97051RD  25334.42955256  .00001330  00000+0  35765-3 0  9990", "line2": "2 35631  86.3681  26.2752 0017893 155.6667 219.6299 14.47256860870196"}}, "geometry": {"type": "Point", "coordinates": [-144.52744013963311, -68.98014974971144]}}, {"type": "Feature", "properties": {"norad_id": 35680, "name": "IRIDIUM 33 DEB", "group": "iridium-33-debris", "lat": -61.57053306330886, "lon": -146.12008018252453, "alt_km": 798.8477578749389, "timestamp": "2025-12-01T03:58:49.184348+00:00", "meta": {"OBJECT_NAME": "IRIDIUM 33 DEB", "OBJECT_ID": "1997-051RJ", "EPOCH": "2025-11-29T10:20:43.781856", "MEAN_MOTION": 14.20568057, "ECCENTRICITY": 0.01507191, "INCLINATION": 86.102, "RA_OF_ASC_NODE": 27.412, "ARG_OF_PERICENTER": 321.0899, "MEAN_ANOMALY": 55.9975, "EPHEMERIS_TYPE": 0, "CLASSIFICATION_TYPE": "U", "NORAD_CAT_ID": 35680, "ELEMENT_SET_NO": 999, "REV_AT_EPOCH": 60512, "BSTAR": 0.0028317999, "MEAN_MOTION_DOT": 6.843e-05, "MEAN_MOTION_DDOT": 0, "GROUP": "iridium-33-debris"}, "tle": {"line1": "1 35680U 97051RJ  25333.43106229  .00006843  00000+0  28318-2 0  9991", "line2": "2 35680  86.1020  27.4120 0150719 321.0899  55.9975 14.20568057605124"}}, "geometry": {"type": "Point", "coordinates": [-146.12008018252453, -61.57053306330886]}}, {"type": "Feature", "properties": {"norad_id": 35744, "name": "IRIDIUM 33 DEB", "group": "iridium-33-debris", "lat": -10.029266305869841, "lon": -29.984527076184246, "alt_km": 668.5037594938767, "timestamp": "2025-12-01T03:58:49.184359+00:00", "meta": {"OBJECT_NAME": "IRIDIUM 33 DEB", "OBJECT_ID": "1997-051RX", "EPOCH": "2025-11-30T10:03:50.292576", "MEAN_MOTION": 14.70723754, "ECCENTRICITY": 0.00190934, "INCLINATION": 86.329, "RA_OF_ASC_NODE": 331.0031, "ARG_OF_PERICENTER": 238.5141, "MEAN_ANOMALY": 121.4209, "EPHEMERIS_TYPE": 0, "CLASSIFICATION_TYPE": "U", "NORAD_CAT_ID": 35744, "ELEMENT_SET_NO": 999, "REV_AT_EPOCH": 87150, "BSTAR": 0.0013034473, "MEAN_MOTION_DOT": 7.991e-05, "MEAN_MOTION_DDOT": 0, "GROUP": "iridium-33-debris"}, "tle": {"line1": "1 35744U 97051RX  25334.41933209  .00007991  00000+0  13034-2 0  9991", "line2": "2 35744  86.3290 331.0031 0019093 238.5141 121.4209 14.70723754871500"}}, "geometry": {"type": "Point", "coordinates": [-29.984527076184246, -10.029266305869841]}}, {"type": "Feature", "properties": {"norad_id": 35797, "name": "IRIDIUM 33 DEB", "group": "iridium-33-debris", "lat": -46.44731899242622, "lon": -28.574399241699084, "alt_km": 633.5055504088041, "timestamp": "2025-12-01T03:58:49.184369+00:00", "meta": {"OBJECT_NAME": "IRIDIUM 33 DEB", "OBJECT_ID": "1997-051SF", "EPOCH": "2025-11-30T07:07:38.627904", "MEAN_MOTION": 14.82232612, "ECCENTRICITY": 0.00113672, "INCLINATION": 86.3365, "RA_OF_ASC_NODE": 335.6885, "ARG_OF_PERICENTER": 192.8282, "MEAN_ANOMALY": 167.2653, "EPHEMERIS_TYPE": 0, "CLASSIFICATION_TYPE": "U", "NORAD_CAT_ID": 35797, "ELEMENT_SET_NO": 999, "REV_AT_EPOCH": 87156, "BSTAR": 0.0019693987, "MEAN_MOTION_DOT": 0.00015769, "MEAN_MOTION_DDOT": 0, "GROUP": "iridium-33-debris"}, "tle": {"line1": "1 35797U 97051SF  25334.29697486  .00015769  00000+0  19694-2 0  9999", "line2": "2 35797  86.3365 335.6885 0011367 192.8282 167.2653 14.82232612871560"}}, "geometry": {"type": "Point", "coordinates": [-28.574399241699084, -46.44731899242622]}}, {"type": "Feature", "properties": {"norad_id": 35806, "name": "IRIDIUM 33 DEB", "group": "iridium-33-debris", "lat": -49.83005198172535, "lon": -149.93184906146902, "alt_km": 715.5805501015111, "timestamp": "2025-12-01T03:58:49.184379+00:00", "meta": {"OBJECT_NAME": "IRIDIUM 33 DEB", "OBJECT_ID": "1997-051SQ", "EPOCH": "2025-11-21T22:04:29.472384", "MEAN_MOTION": 14.57052239, "ECCENTRICITY": 0.00159672, "INCLINATION": 86.3448, "RA_OF_ASC_NODE": 29.7928, "ARG_OF_PERICENTER": 137.8294, "MEAN_ANOMALY": 222.4146, "EPHEMERIS_TYPE": 0, "CLASSIFICATION_TYPE": "U", "NORAD_CAT_ID": 35806, "ELEMENT_SET_NO": 999, "REV_AT_EPOCH": 86021, "BSTAR": 0.0011489261, "MEAN_MOTION_DOT": 5.199e-05, "MEAN_MOTION_DDOT": 0, "GROUP": "iridium-33-debris"}, "tle": {"line1": "1 35806U 97051SQ  25325.91978556  .00005199  00000+0  11489-2 0  9999", "line2": "2 35806  86.3448  29.7928 0015967 137.8294 222.4146 14.57052239860212"}}, "geometry": {"type": "Point", "coordinates": [-149.93184906146902, -49.83005198172535]}}]}